STARLINK-1007           
1 44713U 19074A   24086.43055848  .00002479  00000+0  18530-3 0  9998
2 44713  53.0536 148.5616 0001580  88.5791 271.5379 15.06385544241244
STARLINK-1008           
1 44714U 19074B   24086.54207001 -.00002735  00000+0 -16485-3 0  9995
2 44714  53.0539 148.0643 0001652 100.5348 259.5827 15.06378313241268
STARLINK-1009           
1 44715U 19074C   24086.46466491 -.00002331  00000+0 -13772-3 0  9995
2 44715  53.0529 148.4083 0001416  94.6194 265.4957 15.06375560241249
STARLINK-1010           
1 44716U 19074D   24086.54945208  .00008417  00000+0  58334-3 0  9995
2 44716  53.0524 148.0301 0001807  86.0984 274.0211 15.06396063241240
STARLINK-1011           
1 44717U 19074E   24086.54759588  .00006254  00000+0  43857-3 0  9991
2 44717  53.0533 168.0399 0001411  83.2059 276.9091 15.06385602240987
STARLINK-1012           
1 44718U 19074F   24086.58629276  .00001003  00000+0  86257-4 0  9995
2 44718  53.0520 147.8612 0001318  99.5648 260.5490 15.06390063241268
STARLINK-1013           
1 44719U 19074G   24086.46098451 -.00003752  00000+0 -23326-3 0  9990
2 44719  53.0531 148.4233 0001545 105.6504 254.4655 15.06374466242376
STARLINK-1014           
1 44720U 19074H   24086.45215852  .00027613  00000+0  18034-2 0  9996
2 44720  53.0542 148.1812 0002664  69.6184 290.5092 15.07650628241256
STARLINK-1015           
1 44721U 19074J   24086.53470339 -.00003289  00000+0 -20213-3 0  9997
2 44721  53.0534 148.0959 0001603 102.3520 257.7648 15.06371330241251
STARLINK-1017           
1 44723U 19074L   24086.55313873 -.00002704  00000+0 -16280-3 0  9990
2 44723  53.0537 148.0135 0001463 100.2586 259.8568 15.06376393241264
STARLINK-1019           
1 44724U 19074M   24086.44992023  .00000974  00000+0  84312-4 0  9996
2 44724  53.0529 148.4734 0001963  94.2179 265.9035 15.06382345241249
STARLINK-1020           
1 44725U 19074N   24086.52180910 -.00001959  00000+0 -11274-3 0  9992
2 44725  53.0531 168.1561 0001289 103.2536 256.8597 15.06370504240974
STARLINK-1021           
1 44726U 19074P   24086.44623423 -.00004487  00000+0 -28270-3 0  9998
2 44726  53.0536 148.4926 0001388  83.4550 276.6596 15.06376984241249
STARLINK-1024           
1 44729U 19074S   24086.00001157  .00686960  22450-3  13163-2 0  9998
2 44729  53.0072 356.6156 0001606  82.5505 288.2283 15.99994901  6022
STARLINK-1027           
1 44732U 19074V   24086.51074374 -.00007543  00000+0 -48850-3 0  9990
2 44732  53.0529 168.2116 0001439 101.1214 258.9937 15.06366209240971
STARLINK-1028           
1 44733U 19074W   24086.44256011  .00031508  00000+0  21256-2 0  9999
2 44733  53.0530 148.5104 0001207 101.3365 258.7759 15.06384915241249
STARLINK-1029           
1 44734U 19074X   24086.32458185  .00000297  00000+0  38833-4 0  9995
2 44734  53.0535  69.0340 0001412  84.6007 275.5143 15.06383518242320
STARLINK-1030           
1 44735U 19074Y   24086.51811732 -.00006742  00000+0 -43462-3 0  9994
2 44735  53.0535 168.1718 0001548 107.2232 252.8927 15.06361739240971
STARLINK-1031           
1 44736U 19074Z   24086.53287205 -.00008902  00000+0 -58026-3 0  9991
2 44736  53.0532 168.1001 0001409  93.7638 266.3512 15.06348274240989
STARLINK-1032           
1 44737U 19074AA  24086.54390810  .00015800  00000+0  10788-2 0  9995
2 44737  53.0534 168.0539 0001442  59.5032 300.6099 15.06346454240982
STARLINK-1035           
1 44740U 19074AD  24086.54023047  .00007543  00000+0  52497-3 0  9993
2 44740  53.0547 168.0817 0001510  95.4680 264.6481 15.06382780240989
STARLINK-1036           
1 44741U 19074AE  24086.48494344 -.00003606  00000+0 -22345-3 0  9996
2 44741  53.0532 168.3160 0001559 102.0554 258.0610 15.06372910240970
STARLINK-1038           
1 44743U 19074AG  24086.60104765  .00021768  00000+0  14764-2 0  9999
2 44743  53.0540 187.7947 0001482  90.2560 269.8598 15.06384326240800
STARLINK-1039           
1 44744U 19074AH  24086.54575829 -.00001659  00000+0 -92534-4 0  9998
2 44744  53.0543 188.0433 0001692 106.7742 253.3433 15.06374442240709
STARLINK-1041           
1 44746U 19074AK  24086.59736553  .00024172  00000+0  16365-2 0  9997
2 44746  53.0536 187.8147 0001331 113.0200 247.0930 15.06390887240716
STARLINK-1042           
1 44747U 19074AL  24086.58264807  .00048130  00000+0  28482-2 0  9998
2 44747  53.0547 186.7247 0001644 332.1891  27.9012 15.10989966240730
STARLINK-1043           
1 44748U 19074AM  24086.58998447 -.00008198  00000+0 -53255-3 0  9992
2 44748  53.0533 187.8444 0001457  98.1280 261.9874 15.06368671240713
STARLINK-1046           
1 44751U 19074AQ  24086.53838809 -.00001646  00000+0 -91659-4 0  9998
2 44751  53.0539 188.0821 0001556  94.6068 265.5098 15.06386893240703
STARLINK-1047           
1 44752U 19074AR  24086.49231277 -.00001728  00000+0 -97145-4 0  9997
2 44752  53.0546 168.2784 0001721 114.4446 245.6722 15.06389127240970
STARLINK-1048           
1 44753U 19074AS  24086.43149137 -.00004227  00000+0 -26527-3 0  9997
2 44753  53.0517 148.5575 0001190 109.8986 250.2131 15.06374166241249
STARLINK-1052           
1 44757U 19074AW  24086.47251785  .00023669  00000+0  11162-2 0  9995
2 44757  53.0543 159.7182 0004659 330.7316  29.3417 15.19377800241092
STARLINK-1053           
1 44758U 19074AX  24086.58631649  .00026310  00000+0  17788-2 0  9995
2 44758  53.0534 187.9498 0001080  58.3787 301.7308 15.06395986240711
STARLINK-1054           
1 44759U 19074AY  24086.56786830  .00003240  00000+0  23638-3 0  9996
2 44759  53.0536 187.9392 0001334  92.5014 267.6128 15.06388623238359
STARLINK-1055           
1 44760U 19074AZ  24086.45058512  .00029113  00000+0  11113-2 0  9996
2 44760  53.0152 151.3192 0004640  15.0200 345.0935 15.26435233241227
STARLINK-1056           
1 44761U 19074BA  24086.56419248 -.00002311  00000+0 -13639-3 0  9995
2 44761  53.0541 187.9629 0001415 105.6082 254.5063 15.06373156240713
STARLINK-1057           
1 44762U 19074BB  24086.49967962 -.00005362  00000+0 -34160-3 0  9990
2 44762  53.0529 168.2524 0001440 103.9748 256.1401 15.06373178240970
STARLINK-1058           
1 44763U 19074BC  24086.55317192 -.00006066  00000+0 -38900-3 0  9990
2 44763  53.0536 188.3539 0001053 117.9859 242.1236 15.06373252240701
STARLINK-1059           
1 44764U 19074BD  24086.33575590  .00032503  00000+0  10618-2 0  9993
2 44764  53.0791 113.6438 0004745 327.2477  32.8228 15.31472145241757
STARLINK-1060           
1 44765U 19074BE  24086.51442124  .00000962  00000+0  83486-4 0  9999
2 44765  53.0533 168.1876 0001451  96.8739 263.2415 15.06390439240972
STARLINK-1061           
1 44766U 19074BF  24086.57894460 -.00000673  00000+0 -26336-4 0  9992
2 44766  53.0544 187.8975 0001357  87.3185 272.7959 15.06368405240884
STARLINK-1062           
1 44767U 19074BG  24086.57061046  .00001316  00000+0  10727-3 0  9998
2 44767  53.0535 187.9245 0001428  93.2816 266.8337 15.06386345240711
STARLINK-1063           
1 44768U 19074BH  24086.59365920 -.00000494  00000+0 -14250-4 0  9993
2 44768  53.0527 187.8244 0001314  96.7002 263.4137 15.06393459240726
STARLINK-1067           
1 44771U 19074BL  24086.58261470  .00000209  00000+0  32913-4 0  9999
2 44771  53.0542 187.8820 0001515 105.1553 254.9604 15.06384712240711
STARLINK-1068           
1 44772U 19074BM  24086.50705745 -.00006699  00000+0 -43169-3 0  9995
2 44772  53.0539 168.2209 0001446 102.4472 257.6678 15.06361290240970
STARLINK-1073           
1 44914U 20001A   24086.32458575  .00016518  00000+0  11255-2 0  9990
2 44914  53.0530 309.0357 0001281  89.7024 270.4111 15.06389698232322
STARLINK-1084           
1 44915U 20001B   24085.88965009  .00021188  00000+0  14367-2 0  9992
2 44915  53.0536 310.9893 0001338  76.0361 284.0777 15.06408537232267
STARLINK-1098           
1 44917U 20001D   24085.89332367  .00020701  00000+0  14032-2 0  9999
2 44917  53.0535 310.9721 0001321  78.2254 281.8883 15.06436205232261
STARLINK-1099           
1 44918U 20001E   24086.49425704  .00060165  00000+0  81469-3 0  9992
2 44918  53.0524 264.3764 0002774 192.2034 167.8911 15.57142992233714
STARLINK-1102           
1 44920U 20001G   24086.62724879  .00077994  00000+0  26758-2 0  9992
2 44920  53.0503 261.3098 0002462  98.4950 261.6328 15.29486813233031
STARLINK-1103           
1 44921U 20001H   24086.33470891  .00009002  00000+0  62248-3 0  9993
2 44921  53.0530 308.9493 0001149  80.8038 279.3081 15.06400053232300
STARLINK-1104           
1 44922U 20001J   24086.30617207  .00020940  00000+0  14199-2 0  9990
2 44922  53.0530 309.1163 0001369  78.5260 281.5882 15.06414935232323
STARLINK-1106           
1 44923U 20001K   24085.80853262  .00029572  00000+0  11922-2 0  9999
2 44923  53.0184 278.4098 0001704 286.5033  73.5776 15.24609066232711
STARLINK-1111           
1 44924U 20001L   24086.66667824  .00859159  00000+0  30162-1 0  9990
2 44924  53.0556 306.3837 0001256  79.7340 222.8790 15.26588025  5774
STARLINK-1112           
1 44925U 20001M   24086.33563085  .00012384  00000+0  84849-3 0  9993
2 44925  53.0539 308.9849 0001123  84.1465 275.9652 15.06412599232327
STARLINK-1113           
1 44926U 20001N   24086.66667824  .00924156  00000+0  29925-1 0  9997
2 44926  53.0567 306.2960 0001339  79.2781 243.4054 15.29071024  5771
STARLINK-1114           
1 44927U 20001P   24086.61210686  .00012863  00000+0  88058-3 0  9990
2 44927  53.0529 307.7458 0001350  76.3267 283.7872 15.06412138232371
STARLINK-1119           
1 44928U 20001Q   24086.66667824  .00123542  00000+0  72454-3 0  9996
2 44928  53.0457 254.9096 0003924 293.9324   4.6831 15.77435241  5868
STARLINK-1123           
1 44930U 20001S   24085.89700838  .00004294  00000+0  30696-3 0  9990
2 44930  53.0537 310.9541 0001671 101.2616 258.8561 15.06407682232269
STARLINK-1128           
1 44931U 20001T   24086.66667824  .00118491  00000+0  38705-2 0  9997
2 44931  53.0479 271.2771 0008786 222.1772  86.9996 15.30820320  5882
STARLINK-1130 (DARKSAT) 
